248P/Gibbs,e,6.3498,207.7687,210.0582,5.987195,0.0672774,0.63779982,181.1660,06/15.0/2018,2000,g 14.0,4.0
# From MPC105243
249P/LINEAR,e,8.3969,239.1910,65.5720,2.762252,0.2146887,0.81977412,199.9223,06/15.0/2018,2000,g 15.5,4.0
# From MPC110497
250P/Larson,e,13.2909,73.6802,45.1008,3.730737,0.1367767,0.40679304,18.1586,06/15.0/2018,2000,g 14.5,4.0
# From MPC104795
251P/LINEAR,e,23.4210,219.4056,31.1710,3.506988,0.1500730,0.50590527,50.0420,06/15.0/2018,2000,g 16.5,2.0
# From MPC102956
252P/LINEAR,e,10.4205,190.9492,343.3485,3.047745,0.1852406,0.67267643,152.2427,06/15.0/2018,2000,g 17.5,4.0
# From MPC 81473
253P/PANSTARRS,e,4.9404,146.8825,230.7280,3.469476,0.1525135,0.41295067,5.8348,06/15.0/2018,2000,g 14.5,4.0
# From MPC 81473
254P/McNaught,e,32.4707,129.3781,219.1948,4.626555,0.0990415,0.32198005,277.1052,06/15.0/2018,2000,g 11.0,4.0
# From NK 2214
255P/Levy,e,18.2823,279.6118,179.7958,3.039010,0.1860398,0.66822404,75.8593,06/15.0/2018,2000,g 20.0,4.0
# From MPC 84027
256P/LINEAR,e,27.6374,81.3526,124.3009,4.633900,0.0988062,0.41937473,189.1329,06/15.0/2018,2000,g 14.0,2.0
# From MPC 88332
257P/Catalina,e,20.2395,207.7817,117.8347,3.757877,0.1352977,0.43073162,249.1397,06/15.0/2018,2000,g 11.5,4.0
# From MPC 79655
258P/PANSTARRS,e,6.7439,126.2613,26.1249,4.404717,0.1066172,0.20982720,281.5802,06/15.0/2018,2000,g 13.0,4.0
# From MPC106349
259P/Garradd,e,15.8898,51.4831,257.5143,2.731895,0.2182771,0.33786448,68.7421,06/15.0/2018,2000,g 15.5,4.0
# From MPC102102
260P/McNaught,e,15.0659,349.5608,18.0898,3.628517,0.1425970,0.60931950,295.5906,06/15.0/2018,2000,g 13.5,4.0
# From MPC102102
261P/Larson,e,6.0725,291.1821,66.9938,3.491121,0.1510973,0.42298588,304.3345,06/15.0/2018,2000,g 14.0,4.0
# From MPC 82322
262P/McNaught-Russell,e,29.1111,217.9426,171.0349,6.883498,0.0545746,0.81426590,110.3845,06/15.0/2018,2000,g 13.5,4.0
# From MPC 82323
263P/Gibbs,e,11.5340,105.8142,34.6055,3.061380,0.1840044,0.58763514,47.4973,06/15.0/2018,2000,g 18.0,4.0
# From MPC102102
264P/Larsen,e,25.1507,220.9057,346.5817,3.894762,0.1282279,0.37378597,306.6809,06/15.0/2018,2000,g 13.0,4.0
# From MPC 79870
265P/LINEAR,e,14.4290,343.6629,33.1537,4.234259,0.1131196,0.64959780,250.2838,06/15.0/2018,2000,g 14.5,4.0
# From MPC 90771
266P/Christensen,e,3.4277,5.0051,97.9645,3.532891,0.1484256,0.33941367,259.8524,06/15.0/2018,2000,g 12.5,4.0
# From MPC 81862
267P/LONEOS,e,6.1380,228.6890,114.0792,3.211955,0.1712182,0.61359378,353.6105,06/15.0/2018,2000,g 19.5,4.0
# From MPC 92277
268P/Bernardi,e,16.1040,127.6013,0.2562,4.558000,0.1012844,0.46950854,116.0440,06/15.0/2018,2000,g 14.0,4.0
# From MPC104795
269P/Jedicke,e,7.0675,241.7125,226.1051,7.092616,0.0521788,0.43397068,70.1410,06/15.0/2018,2000,g 10.0,4.0
# From MPC 88332
270P/Gehrels,e,2.9165,222.9588,210.1238,6.675637,0.0571433,0.46769613,104.4533,06/15.0/2018,2000,g  8.0,4.0
# From MPC 92277
271P/van Houten-Lemmon,e,6.8575,9.2911,36.7156,7.060281,0.0525377,0.39257583,94.5699,06/15.0/2018,2000,g 11.0,4.0
# From MPC 81862
272P/NEAT,e,18.0809,109.4826,28.0929,4.449779,0.1050017,0.45469665,203.1824,06/15.0/2018,2000,g 16.0,2.0
# From MPC 82723
273P/Pons-Gambart,e,136.5614,320.4030,20.2022,31.56003,0.0055590,0.97411406,0.0000,12/16.8702/2012,2000,g 11.5,4.0
# From MPC 88332
274P/Tombaugh-Tenagra,e,15.8187,81.3415,38.6202,4.367291,0.1079906,0.43879568,209.4237,06/15.0/2018,2000,g 13.0,4.0
# From MPC 81862
275P/Hermann,e,21.3260,348.7388,174.1423,5.767583,0.0711563,0.71365457,142.0298,06/15.0/2018,2000,g 15.0,4.0
# From MPC 84935
276P/Vorobjov,e,14.9390,211.6840,200.9226,5.287512,0.0810638,0.27208922,166.4769,06/15.0/2018,2000,g 11.5,4.0
# From MPC105243
277P/LINEAR,e,16.7631,276.3364,152.1489,3.857152,0.1301080,0.50418636,239.0077,06/15.0/2018,2000,g 14.0,4.0
# From MPC105243
278P/McNaught,e,6.6836,15.4757,237.9560,3.695804,0.1387205,0.43469995,246.2601,06/15.0/2018,2000,g 14.0,4.0
# From MPC 10028
279P/La Sagra,e,5.0470,346.2314,5.8022,3.578572,0.1455927,0.39707489,102.0052,06/15.0/2018,2000,g 14.0,4.0
# From MPC 89013
280P/Larsen,e,11.7700,131.4442,104.6881,4.528181,0.1022865,0.41853940,168.3059,06/15.0/2018,2000,g 12.5,4.0
# From MPC 83145
281P/MOSS,e,4.7200,87.1741,27.2182,4.864929,0.0918522,0.17164369,204.0971,06/15.0/2018,2000,g 11.0,4.0
# From unp
282P/,e,5.8092,9.3420,217.2128,4.248582,0.1125481,0.18952752,222.1153,06/15.0/2018,2000,g 13.5,2.0
# From MPC 84027
283P/Spacewatch,e,14.4607,161.1853,22.2707,4.137612,0.1171061,0.48575998,221.7709,06/15.0/2018,2000,g 16.0,2.0
# From MPC 93589
284P/McNaught,e,11.8597,144.2926,202.7815,3.672486,0.1400438,0.37567658,193.7221,06/15.0/2018,2000,g 13.0,4.0
# From MPC 85339
285P/LINEAR,e,25.0104,185.4749,178.4517,4.509275,0.1029305,0.61741165,187.6308,06/15.0/2018,2000,g 15.0,4.0
# From MPC 90771
286P/Christensen,e,17.0400,283.9500,24.6842,4.114987,0.1180732,0.42426820,191.3575,06/15.0/2018,2000,g 14.0,4.0
# From MPC 96868
287P/Christensen,e,16.3078,139.0318,188.8212,4.172340,0.1156470,0.26942049,146.3365,06/15.0/2018,2000,g 13.5,4.0
# From unp
288P/,e,3.2403,83.1872,280.9195,3.047925,0.1852241,0.20109535,108.2069,06/15.0/2018,2000,g 16.0,2.0
# From MPC102102
289P/Blanpain,e,5.8980,68.9301,9.8137,3.045807,0.1854174,0.68474906,257.2519,06/15.0/2018,2000,g 10.0,4.0
# From MPC 95214
290P/Jager,e,19.0979,303.3478,180.8576,6.131574,0.0649152,0.64753998,101.0171,06/15.0/2018,2000,g 10.5,4.0
# From MPC 89314
291P/NEAT,e,6.3504,238.3807,175.4491,4.470016,0.1042895,0.44484052,172.5598,06/15.0/2018,2000,g 13.0,4.0
# From MPC110085
292P/Li,e,24.2518,91.0033,319.5917,6.116833,0.0651500,0.58733918,103.9369,06/15.0/2018,2000,g 12.5,4.0
# From MPC 92278
293P/Spacewatch,e,9.0575,78.4122,41.1927,3.640170,0.1419128,0.41830744,229.6470,06/15.0/2018,2000,g 14.5,4.0
# From MPC 89013
294P/LINEAR,e,18.2128,312.6187,235.5039,3.205716,0.1717182,0.59440725,268.5371,06/15.0/2018,2000,g 15.5,4.0
# From MPC 93589
295P/LINEAR,e,21.1011,7.5562,73.0089,5.309796,0.0805540,0.61646254,120.4042,06/15.0/2018,2000,g 12.0,4.0
# From MPC 92278
296P/Garradd,e,25.2323,263.6387,350.0347,3.499329,0.1505660,0.47836990,235.6622,06/15.0/2018,2000,g 14.0,4.0
# From MPC102956
297P/Beshore,e,10.3267,97.6635,132.3454,3.445383,0.1541161,0.31949037,213.2472,06/15.0/2018,2000,g 15.0,4.0
# From MPC105243
298P/Christensen,e,7.8722,52.8278,100.7642,3.592405,0.1447525,0.38737061,242.1303,06/15.0/2018,2000,g 15.0,4.0
# From MPC101100
299P/Catalina-PANSTARRS,e,10.4765,271.6347,323.7721,4.380522,0.1075017,0.28277388,129.6964,06/15.0/2018,2000,g 11.5,4.0
# From MPC 89314
300P/Catalina,e,5.6759,95.6763,222.8534,2.699730,0.2221895,0.69153743,328.8767,06/15.0/2018,2000,g 16.0,4.0
# From MPC 89014
301P/LINEAR-NEAT,e,10.3605,351.1718,193.7023,5.733406,0.0717935,0.58698082,99.2257,06/15.0/2018,2000,g 13.0,4.0
# From MPC108598
302P/Lemmon-PANSTARRS,e,6.0312,121.7599,208.1884,4.279968,0.1113123,0.22889505,86.3647,06/15.0/2018,2000,g 12.5,4.0
# From MPC 92278
303P/NEAT,e,7.0072,347.9935,356.8688,5.054381,0.0867365,0.50876608,116.2978,06/15.0/2018,2000,g 13.5,4.0
# From MPC 92987
304P/Ory,e,2.7218,58.8498,335.1310,3.151059,0.1762054,0.61214351,222.8920,06/15.0/2018,2000,g 16.5,4.0
# From MPC101100
305P/Skiff,e,11.6359,240.1510,147.3087,4.647404,0.0983758,0.69233282,128.5895,06/15.0/2018,2000,g 18.0,4.0
# From MPC 92278
306P/LINEAR,e,8.3181,341.4586,0.8309,3.119155,0.1789158,0.59369888,255.0071,06/15.0/2018,2000,g 19.0,4.0
# From MPC 91619
307P/LINEAR,e,4.4255,158.0922,222.2886,5.801808,0.0705276,0.67308553,89.8473,06/15.0/2018,2000,g 15.0,4.0
# From MPC109148
308P/Lagerkvist-Carsenty,e,4.8489,63.1370,333.8603,6.619275,0.0578747,0.36200965,65.7643,06/15.0/2018,2000,g 13.0,2.0
# From MPC 94284
309P/LINEAR,e,17.1276,10.4557,49.8786,4.368335,0.1079519,0.61934148,131.0955,06/15.0/2018,2000,g 15.0,4.0
# From MPC 98566
310P/Hill,e,13.1507,8.9703,31.9730,4.173355,0.1156048,0.42315996,133.5226,06/15.0/2018,2000,g 13.5,4.0
# From MPC109593
311P/PANSTARRS,e,4.9668,279.2562,143.9985,2.188572,0.3044127,0.11548633,103.3055,06/15.0/2018,2000,g 17.0,4.0
# From MPC 92279
312P/NEAT,e,19.7684,144.8293,207.6533,3.462215,0.1529935,0.42917879,232.5355,06/15.0/2018,2000,g 16.0,4.0
# From MPC 92987
313P/Gibbs,e,10.9562,106.1033,254.1251,3.166711,0.1749007,0.23688884,243.1863,06/15.0/2018,2000,g 15.0,4.0
# From MPC105243
314P/Montani,e,3.9780,267.6502,214.0270,7.274874,0.0502303,0.41752683,30.8165,06/15.0/2018,2000,g  9.5,4.0
# From MPC110497
315P/LONEOS,e,17.9675,69.4738,67.0176,5.016776,0.0877136,0.51925495,48.6902,06/15.0/2018,2000,g 11.0,4.0
# From MPC 92279
316P/LONEOS-Christensen,e,9.9030,246.7849,192.9294,4.317726,0.1098554,0.16765405,104.8784,06/15.0/2018,2000,g 13.5,4.0
# From MPC102103
317P/WISE,e,11.9473,275.5218,334.8469,2.966995,0.1928541,0.57036465,199.1527,06/15.0/2018,2000,g 17.5,4.0
# From MPC102103
318P/McNaught-Hartley,e,17.8704,35.7229,313.1084,7.499796,0.0479877,0.67406162,46.3871,06/15.0/2018,2000,g  8.5,6.0
# From MPC 97499
319P/Catalina-McNaught,e,15.0867,111.3619,203.5991,3.571265,0.1460397,0.66566511,157.5862,06/15.0/2018,2000,g 15.0,4.0
# From MPC 95736
320P/McNaught,e,4.9053,295.9180,0.7366,3.095943,0.1809317,0.68520816,188.5965,06/15.0/2018,2000,g 20.5,4.0
# From MPC 94284
321P/SOHO,e,20.1600,165.2055,172.5537,2.422521,0.2613983,0.98104527,0.0000,01/17.3059/2020,2000,g 20.0,4.0
# From MPEC 2017-L52
321P/SOHO,e,20.0137,165.0527,172.7115,2.422541,0.2613951,0.98100126,0.0000,01/17.3336/2020,2000,g 20.0,4.0
# From MPC102103
322P/SOHO,e,11.7890,354.3915,54.0812,2.512809,0.2474372,0.97995503,0.0000,08/31.1068/2019,2000,g 19.0,4.0
# From MPC102957
323P/SOHO,e,4.6797,322.9953,354.3266,2.583124,0.2374030,0.98468728,0.0000,11/23.5933/2016,2000,g 20.0,4.0
# From MPC108598
324P/La Sagra,e,21.4235,270.6398,58.3316,3.094107,0.1810927,0.15411613,168.1983,06/15.0/2018,2000,g 13.0,4.0
# From MPC 95736
325P/Yang-Gao,e,16.7011,257.5826,343.6415,3.524183,0.1489760,0.59404891,154.1045,06/15.0/2018,2000,g 14.0,4.0
# From MPC103849
326P/Hill,e,2.4707,99.8124,278.7140,4.067086,0.1201653,0.31671707,116.2087,06/15.0/2018,2000,g 13.5,4.0
